SKYSAT-A                
1 39418U 13066C   22284.17996594  .00003180  00000+0  25715-3 0  9993
2 39418  97.5385 352.5592 0028253 225.2404 134.6521 15.00178065486007
SKYSAT-B                
1 40072U 14037D   22283.90591826  .00001403  00000+0  18473-3 0  9998
2 40072  98.3901 158.0297 0005421 314.3947  45.6820 14.81859210446345
SKYSAT-C1               
1 41601U 16040C   22284.67366017  .00032897  00000+0  86434-3 0  9993
2 41601  97.1493 357.1142 0008874  97.6187 262.6840 15.38498674351861
FLOCK 2P-9              
1 41610U 16040M   22284.16913488  .00073567  00000+0  17381-2 0  9990
2 41610  97.2167 340.5063 0007280  56.8290 303.3655 15.41552223350838
FLOCK 2P-8              
1 41613U 16040Q   22284.14893346  .00066622  00000+0  16046-2 0  9992
2 41613  97.2220 341.4817 0007974  57.6847 302.5171 15.40995367350984
FLOCK 2P-3              
1 41618U 16040V   22283.40094897  .00071303  00000+0  16722-2 0  9992
2 41618  97.2239 341.4404 0008155  71.4587 288.7546 15.41778251350880
SKYSAT-C4               
1 41771U 16058B   22283.59442825  .00017465  00000+0  46333-3 0  9990
2 41771  97.1070 345.3806 0001504 142.7977 217.3373 15.38363235338652
SKYSAT-C5               
1 41772U 16058C   22284.49616457  .00009357  00000+0  34899-3 0  9990
2 41772  97.2529 344.9126 0001907  99.3676 260.7779 15.27626626337489
SKYSAT-C2               
1 41773U 16058D   22284.15945430  .00016210  00000+0  42986-3 0  9992
2 41773  97.1083 346.3274 0003774 101.0778 259.0892 15.38386640338762
SKYSAT-C3               
1 41774U 16058E   22283.42189287  .00021401  00000+0  48637-3 0  9999
2 41774  97.1073 346.6304 0001655  50.8948 309.2447 15.43025346338713
FLOCK 3P-24             
1 41956U 17008J   22283.16592149  .00019165  00000+0  54808-3 0  9994
2 41956  97.2718 351.4024 0007333 142.7997 217.3757 15.35987349314919
FLOCK 3P-4              
1 41965U 17008T   22283.17703595  .00158255  00000+0  29996-2 0  9997
2 41965  97.2624 348.8057 0007056 188.1217 171.9920 15.47729852314678
FLOCK 3P-2              
1 41966U 17008U   22283.42620265  .00136309  00000+0  29867-2 0  9991
2 41966  97.2641 348.7460 0006329 175.9289 184.2011 15.43561669314595
FLOCK 3P-3              
1 41968U 17008W   22283.42013901  .00024747  00000+0  69050-3 0  9997
2 41968  97.2661 348.5279 0006787 157.8666 202.2873 15.36709675314669
FLOCK 3P-12             
1 41972U 17008AA  22283.17133312  .00148418  00000+0  30787-2 0  9999
2 41972  97.2635 348.6494 0005878 173.9478 186.1843 15.45139804314641
FLOCK 3P-11             
1 41975U 17008AD  22283.42557965  .00152601  00000+0  31054-2 0  9991
2 41975  97.2621 348.7869 0005985 171.4174 188.7179 15.45686844314574
FLOCK 3P-58             
1 41977U 17008AF  22284.13483243  .00179273  00000+0  31876-2 0  9995
2 41977  97.2631 350.2468 0006558 188.3329 171.7814 15.49492849314916
FLOCK 3P-57             
1 41978U 17008AG  22284.15918644  .00161764  00000+0  31014-2 0  9996
2 41978  97.2626 349.9720 0007433 180.9251 179.1987 15.47382299314741
FLOCK 3P-34             
1 41988U 17008AS  22283.42245250  .00124406  00000+0  29661-2 0  9999
2 41988  97.2678 349.1512 0006733 159.5347 200.6171 15.41069000314088
FLOCK 3P-33             
1 41990U 17008AU  22284.15540811  .00018417  00000+0  58083-3 0  9999
2 41990  97.2665 347.4626 0006372 160.6745 199.4740 15.32903538314044
FLOCK 3P-49             
1 42001U 17008BF  22283.48751985  .00128951  00000+0  29565-2 0  9991
2 42001  97.2643 349.1720 0005221 191.6858 168.4269 15.42239901314622
FLOCK 3P-61             
1 42009U 17008BP  22284.18484842  .00138044  00000+0  28604-2 0  9999
2 42009  97.2641 349.7334 0005687 187.7920 172.3242 15.45213214314859
FLOCK 3P-54             
1 42014U 17008BU  22284.17201286  .00119177  00000+0  26825-2 0  9992
2 42014  97.2654 349.5070 0005240 184.3661 175.7542 15.42832408314820
FLOCK 3P-23             
1 42018U 17008BY  22284.18107977  .00136321  00000+0  29084-2 0  9999
2 42018  97.2629 349.3559 0006329 170.8959 189.2406 15.44353587313641
FLOCK 3P-76             
1 42019U 17008BZ  22283.17581441  .00112511  00000+0  25436-2 0  9992
2 42019  97.2706 349.6394 0007300 176.7054 183.4243 15.42715545314559
FLOCK 3P-32             
1 42023U 17008CD  22284.16319093  .00133084  00000+0  29007-2 0  9995
2 42023  97.2639 349.5529 0006393 173.9669 186.1658 15.43730989314875
FLOCK 3P-80             
1 42026U 17008CG  22284.19094274  .00103271  00000+0  23833-2 0  9998
2 42026  97.2686 350.1441 0005353 187.2333 172.8838 15.42146469312842
FLOCK 3P-66             
1 42027U 17008CH  22284.17556913  .00125402  00000+0  28517-2 0  9994
2 42027  97.2651 349.3437 0005501 174.0457 186.0857 15.42498627314808
FLOCK 3P-65             
1 42028U 17008CJ  22284.41948935  .00123296  00000+0  26683-2 0  9992
2 42028  97.2646 350.0604 0006517 192.2140 167.8951 15.43980626314760
FLOCK 3P-50             
1 42029U 17008CK  22283.40707210  .00140543  00000+0  30914-2 0  9996
2 42029  97.2663 349.1179 0006193 197.4641 162.6395 15.43430475313923
FLOCK 3P-46             
1 42031U 17008CM  22284.17605708  .00124980  00000+0  28059-2 0  9997
2 42031  97.2634 349.3109 0005233 178.3233 181.8033 15.42886015314835
FLOCK 3P-64             
1 42034U 17008CQ  22283.16811669  .00137951  00000+0  29964-2 0  9991
2 42034  97.2627 348.5081 0006581 197.1147 162.9880 15.43813542314713
FLOCK 3P-55             
1 42041U 17008CX  22284.17967897  .00130837  00000+0  28657-2 0  9990
2 42041  97.2631 349.5605 0006310 199.3938 160.7071 15.43594841314885
FLOCK 3P-74             
1 42048U 17008DE  22283.43538179  .00066419  00000+0  16426-2 0  9997
2 42048  97.2703 349.3811 0007024 151.9434 208.2192 15.40199147313896
SKYSAT-C11              
1 42987U 17068A   22283.76336847  .00018840  00000+0  49829-3 0  9998
2 42987  97.3032  41.9826 0001464 173.1883 186.9382 15.38446535276110
SKYSAT-C10              
1 42988U 17068B   22283.60102097  .00019524  00000+0  51689-3 0  9997
2 42988  97.3081  42.1374 0002898  97.4043 262.7532 15.38405633276118
SKYSAT-C9               
1 42989U 17068C   22283.58889897  .00019095  00000+0  50452-3 0  9995
2 42989  97.3013  41.1809 0002282 209.1441 150.9677 15.38473446276303
SKYSAT-C8               
1 42990U 17068D   22284.29734157  .00020131  00000+0  53086-3 0  9993
2 42990  97.3093  43.2622 0002046  24.6360 335.4982 15.38524353276243
SKYSAT-C7               
1 42991U 17068E   22283.55927976  .00020626  00000+0  54513-3 0  9990
2 42991  97.3097  42.6093 0001143 163.9993 196.1288 15.38450593276132
SKYSAT-C6               
1 42992U 17068F   22284.33025216  .00019607  00000+0  51841-3 0  9992
2 42992  97.3118  43.7921 0001791 198.3218 161.7963 15.38447460276261
FLOCK 3M-4              
1 42997U 17068L   22283.55780944  .00103217  00000+0  29935-2 0  9995
2 42997  97.4710  38.5049 0011320   3.7773 356.3554 15.35063159274512
FLOCK 3P'-3             
1 43119U 18004J   22283.51010787  .00013744  00000+0  49618-3 0  9996
2 43119  97.3665 356.2809 0007922 325.9744  34.0987 15.28579626263781
FLOCK 3P'-2             
1 43120U 18004K   22283.15486473  .00013774  00000+0  50351-3 0  9996
2 43120  97.3670 355.4805 0007837 328.7623  31.3150 15.28170361263693
FLOCK 3P'-4             
1 43122U 18004M   22284.18925384  .00011754  00000+0  43019-3 0  9990
2 43122  97.3669 356.6841 0007685 326.9880  33.0879 15.28169769263857
FLOCK 3R-9              
1 43723U 18096E   22284.23163442  .00482921  00000+0  37936-2 0  9991
2 43723  97.3499  12.7533 0010079 298.7348 118.3942 15.70037304216299
FLOCK 3R-12             
1 43724U 18096F   22284.22262839  .00126301  00000+0  18311-2 0  9994
2 43724  97.3506  10.9965 0009771 345.4560  14.6412 15.55361450216173
FLOCK 3R-11             
1 43725U 18096G   22284.22499674  .00264069  00000+0  35981-2 0  9990
2 43725  97.3516  11.2643 0009649 341.8635  18.2275 15.56578738216198
FLOCK 3R-4              
1 43733U 18096Q   22284.20455535  .00294369  00000+0  39234-2 0  9996
2 43733  97.3395  11.5657 0015318 345.7050  71.4844 15.56999074216197
FLOCK 3R-6              
1 43741U 18096Y   22284.23601719  .00594678  00000+0  42389-2 0  9996
2 43741  97.3489  13.0791 0012641 311.7133 104.4537 15.72030781216316
FLOCK 3R-7              
1 43742U 18096Z   22284.25397325  .00350814  00000+0  39025-2 0  9999
2 43742  97.3505  12.1470 0010549 331.7309  91.6684 15.61676496216241
FLOCK 3R-1              
1 43747U 18096AE  22284.21269255  .00596132  00000+0  38351-2 0  9996
2 43747  97.3492  13.6939 0013794 316.2912  43.7259 15.74432241216349
FLOCK 3S-1              
1 43769U 18099M   22283.57478071  .00003430  00000+0  30630-3 0  9996
2 43769  97.6085 346.2231 0012762 244.3694 115.6209 14.96525447210225
SKYSAT-C12              
1 43797U 18099AR  22284.13829891  .00016881  00000+0  44657-3 0  9998
2 43797  97.1151 347.6086 0003629  39.3612 320.7897 15.38453819215263
SKYSAT-C13              
1 43802U 18099AW  22284.16601666  .00016542  00000+0  43662-3 0  9995
2 43802  97.1428 346.4053 0001871 110.1411 250.0036 15.38532064214753
FLOCK 3K-4              
1 43893U 18111T   22284.12361771  .00195910  00000+0  33523-2 0  9997
2 43893  97.1721 173.4706 0011063  32.3875 327.8054 15.50485410211436
FLOCK 3K-5              
1 43899U 18111Z   22283.24964748  .00158238  00000+0  31043-2 0  9995
2 43899  97.1742 171.6921 0013985  30.0256 330.1793 15.46656294211237
FLOCK 3K-7              
1 43902U 18111AC  22283.84999465  .00137785  00000+0  28849-2 0  9994
2 43902  97.1749 172.3593 0013951  19.0978 341.0791 15.44825985211336
FLOCK 3K-10             
1 43905U 18111AF  22284.15835632  .00191076  00000+0  33180-2 0  9994
2 43905  97.1725 173.5886 0009470  24.9913 335.1795 15.50102070211446
FLOCK 3K-9              
1 43906U 18111AG  22284.24034007  .00159328  00000+0  31799-2 0  9990
2 43906  97.1734 172.6619 0013211  24.3271 335.8600 15.46161439211395
FLOCK 4A-2              
1 44080U 19018C   22284.15739561  .00036686  00000+0  99169-3 0  9995
2 44080  97.2964 342.9397 0009106  58.1543 302.0587 15.37596804196429
